HAWK-2A                 
1 47505U 21006CW  26068.67946547  .00008113  00000+0  25431-3 0  9990
2 47505  97.2459 115.6184 0006450 187.1463 172.9689 15.33304498284242
STARLINK-34870          
1 65370U 25190V   26068.54461421  .00029639  00000+0  10086-2 0  9992
2 65370  53.1593 168.8039 0001363 100.7212 259.3943 15.30206961 29267
